IRIDIUM 63              
1 25286U 98021B   25068.63804312  .00000658  00000+0  21791-3 0  9992
2 25286  86.3975 123.9074 0002137  97.1606 262.9834 14.36412426409551
IRIDIUM 69              
1 25319U 98026A   25068.74690847  .00000868  00000+0  26522-3 0  9992
2 25319  86.4000 137.4444 0002830  43.3145 316.8276 14.40806584408746
IRIDIUM 71              
1 25320U 98026B   25068.69789794  .00000757  00000+0  22954-3 0  9990
2 25320  86.3986 132.1768 0004145  75.5639 284.6021 14.41015798409265
IRIDIUM 73              
1 25344U 98032C   25068.59237003  .00001150  00000+0  28295-3 0  9995
2 25344  86.4353  89.1280 0002169  74.8831 285.2614 14.51484617416118
IRIDIUM 82              
1 25467U 98051A   25068.77099482  .00034685  00000+0  11845-2 0  9990
2 25467  86.3752 158.3796 0094456 312.9183  46.4162 15.25893321408768
